GLOBALSTAR M045         
1 25676U 99019A   25117.18048442 -.00000083  00000+0  90431-4 0  9993
2 25676  51.9959  90.6466 0000511  80.2681 293.0049 12.27061351187134
GLOBALSTAR M019         
1 25677U 99019B   25117.64307432 -.00000212  00000+0 -12764-2 0  9998
2 25677  51.9874 216.1390 0001501 197.7583 302.1536 12.13874631179005
GLOBALSTAR M044         
1 25678U 99019C   25117.36280737 -.00000041  00000+0  59937-3 0  9999
2 25678  51.9943 161.9222 0006099 301.4201  71.7716 11.90249176165279
GLOBALSTAR M042         
1 25679U 99019D   25117.61857108 -.00000040  00000+0  48898-3 0  9993
2 25679  52.0002 193.7112 0003217 190.1043 316.7622 12.22081966179073
GLOBALSTAR M025         
1 25770U 99031A   25117.22059840 -.00000072  00000+0 -13409-3 0  9999
2 25770  51.9816 277.3400 0002119  83.0737  87.5602 11.22558051475988
GLOBALSTAR M049         
1 25771U 99031B   25117.56568720 -.00000111  00000+0 -16014-2 0  9997
2 25771  51.9889 308.7612 0001932 286.4923  73.5661 11.12113091111797
GLOBALSTAR M047         
1 25772U 99031C   25116.84263785 -.00000067  00000+0  64510-4 0  9996
2 25772  51.9846 312.2748 0016631 172.1141 187.9928 11.31927564465298
GLOBALSTAR M052         
1 25773U 99031D   25117.11853200 -.00000085  00000+0 -64942-3 0  9994
2 25773  51.9880  59.1610 0002698  81.8319 291.1142 11.15058741472819
